YAOGAN-43 01D           
1 60461U 24148D   26068.43560480  .00010676  00000+0  37766-3 0  9999
2 60461  35.0010  61.7102 0002556 326.2473  33.8080 15.28369377 87008
STARLINK-34222          
1 64191U 25113X   26068.44120513  .00027535  00000+0  93845-3 0  9998
2 64191  53.1598  92.5258 0001336  80.5572 279.5580 15.30196643 44984
